{"type": "FeatureCollection", "features": [ {"type": "Feature", "properties": {"norad_id": 42741, "name": "EUTELSAT 172B", "group": "eutelsat", "lat": 0.0007348699857445049, "lon": 107.9627947905023, "alt_km": 35786.34177296097, "timestamp": "2025-12-05T14:45:14.985004+00:00", "meta": {"OBJECT_NAME": "EUTELSAT 172B", "OBJECT_ID": "2017-029B", "EPOCH": "2025-12-04T12:50:38.628384", "MEAN_MOTION": 1.0027119, "ECCENTRICITY": 1.71e-05, "INCLINATION": 0.0081, "RA_OF_ASC_NODE": 80.5787, "ARG_OF_PERICENTER": 128.2888, "MEAN_ANOMALY": 229.3994, "EPHEMERIS_TYPE": 0, "CLASSIFICATION_TYPE": "U", "NORAD_CAT_ID": 42741, "ELEMENT_SET_NO": 999, "REV_AT_EPOCH": 3177, "BSTAR": 0, "MEAN_MOTION_DOT": 9e-08, "MEAN_MOTION_DDOT": 0}, "tle": {"line1": "1 42741U 17029B   25338.53516931  .00000009  00000+0  00000+0 0  9998", "line2": "2 42741   0.0081  80.5787 0000171 128.2888 229.3994  1.00271190 31777"}}, "geometry": {"type": "Point", "coordinates": [107.9627947905023, 0.0007348699857445049]}}, {"type": "Feature", "properties": {"norad_id": 44334, "name": "EUTELSAT 7C", "group": "eutelsat", "lat": 0.05192041914439256, "lon": -57.020092762735466, "alt_km": 35780.736688224824, "timestamp": "2025-12-05T14:45:14.985016+00:00", "meta": {"OBJECT_NAME": "EUTELSAT 7C", "OBJECT_ID": "2019-034B", "EPOCH": "2025-12-04T05:11:56.717088", "MEAN_MOTION": 1.00269705, "ECCENTRICITY": 0.000344, "INCLINATION": 0.0758, "RA_OF_ASC_NODE": 179.6885, "ARG_OF_PERICENTER": 56.5984, "MEAN_ANOMALY": 281.9777, "EPHEMERIS_TYPE": 0, "CLASSIFICATION_TYPE": "U", "NORAD_CAT_ID": 44334, "ELEMENT_SET_NO": 999, "REV_AT_EPOCH": 488, "BSTAR": 0, "MEAN_MOTION_DOT": 6.4e-07, "MEAN_MOTION_DDOT": 0}, "tle": {"line1": "1 44334U 19034B   25338.21662867  .00000064  00000+0  00000+0 0  9992", "line2": "2 44334   0.0758 179.6885 0003440  56.5984 281.9777  1.00269705  4883"}}, "geometry": {"type": "Point", "coordinates": [-57.020092762735466, 0.05192041914439256]}}, {"type": "Feature", "properties": {"norad_id": 44624, "name": "EUTELSAT 5 WEST B", "group": "eutelsat", "lat": -0.05999313883913026, "lon": -69.00665586246124, "alt_km": 35774.49805830867, "timestamp": "2025-12-05T14:45:14.985028+00:00", "meta": {"OBJECT_NAME": "EUTELSAT 5 WEST B", "OBJECT_ID": "2019-067A", "EPOCH": "2025-12-04T13:42:12.244320", "MEAN_MOTION": 1.00270033, "ECCENTRICITY": 0.0003567, "INCLINATION": 0.0692, "RA_OF_ASC_NODE": 330.6082, "ARG_OF_PERICENTER": 283.2398, "MEAN_ANOMALY": 20.3528, "EPHEMERIS_TYPE": 0, "CLASSIFICATION_TYPE": "U", "NORAD_CAT_ID": 44624, "ELEMENT_SET_NO": 999, "REV_AT_EPOCH": 2248, "BSTAR": 0, "MEAN_MOTION_DOT": -2.8e-07, "MEAN_MOTION_DDOT": 0}, "tle": {"line1": "1 44624U 19067A   25338.57097505 -.00000028  00000+0  00000+0 0  9991", "line2": "2 44624   0.0692 330.6082 0003567 283.2398  20.3528  1.00270033 22489"}}, "geometry": {"type": "Point", "coordinates": [-69.00665586246124, -0.05999313883913026]}}, {"type": "Feature", "properties": {"norad_id": 45027, "name": "EUTELSAT KONNECT", "group": "eutelsat", "lat": -0.04262052991506572, "lon": -56.822973377093064, "alt_km": 35780.39790415802, "timestamp": "2025-12-05T14:45:14.985045+00:00", "meta": {"OBJECT_NAME": "EUTELSAT KONNECT", "OBJECT_ID": "2020-005B", "EPOCH": "2025-12-04T08:37:30.489888", "MEAN_MOTION": 1.00272344, "ECCENTRICITY": 0.0001642, "INCLINATION": 0.0692, "RA_OF_ASC_NODE": 100.602, "ARG_OF_PERICENTER": 164.0721, "MEAN_ANOMALY": 305.3307, "EPHEMERIS_TYPE": 0, "CLASSIFICATION_TYPE": "U", "NORAD_CAT_ID": 45027, "ELEMENT_SET_NO": 999, "REV_AT_EPOCH": 2237, "BSTAR": 0, "MEAN_MOTION_DOT": 6.5e-07, "MEAN_MOTION_DDOT": 0}, "tle": {"line1": "1 45027U 20005B   25338.35938067  .00000065  00000+0  00000+0 0  9996", "line2": "2 45027   0.0692 100.6020 0001642 164.0721 305.3307  1.00272344 22378"}}, "geometry": {"type": "Point", "coordinates": [-56.822973377093064, -0.04262052991506572]}}, {"type": "Feature", "properties": {"norad_id": 49056, "name": "EUTELSAT QUANTUM", "group": "eutelsat", "lat": -0.01148833661820457, "lon": -16.291889312324933, "alt_km": 35783.31203091867, "timestamp": "2025-12-05T14:45:14.985057+00:00", "meta": {"OBJECT_NAME": "EUTELSAT QUANTUM", "OBJECT_ID": "2021-069B", "EPOCH": "2025-12-04T13:57:10.807776", "MEAN_MOTION": 1.00269477, "ECCENTRICITY": 0.0003673, "INCLINATION": 0.0208, "RA_OF_ASC_NODE": 24.1809, "ARG_OF_PERICENTER": 241.8459, "MEAN_ANOMALY": 64.6276, "EPHEMERIS_TYPE": 0, "CLASSIFICATION_TYPE": "U", "NORAD_CAT_ID": 49056, "ELEMENT_SET_NO": 999, "REV_AT_EPOCH": 1597, "BSTAR": 0, "MEAN_MOTION_DOT": 1.41e-06, "MEAN_MOTION_DDOT": 0}, "tle": {"line1": "1 49056U 21069B   25338.58137509  .00000141  00000+0  00000+0 0  9995", "line2": "2 49056   0.0208  24.1809 0003673 241.8459  64.6276  1.00269477 15971"}}, "geometry": {"type": "Point", "coordinates": [-16.291889312324933, -0.01148833661820457]}}, {"type": "Feature", "properties": {"norad_id": 53765, "name": "EUTELSAT KONNECT VHTS", "group": "eutelsat", "lat": -0.03201849496706311, "lon": -61.31774597511555, "alt_km": 35781.97636856175, "timestamp": "2025-12-05T14:45:14.985069+00:00", "meta": {"OBJECT_NAME": "EUTELSAT KONNECT VHTS", "OBJECT_ID": "2022-110A", "EPOCH": "2025-12-04T13:44:12.050880", "MEAN_MOTION": 1.00269123, "ECCENTRICITY": 0.0002763, "INCLINATION": 0.0604, "RA_OF_ASC_NODE": 108.2919, "ARG_OF_PERICENTER": 124.354, "MEAN_ANOMALY": 49.743, "EPHEMERIS_TYPE": 0, "CLASSIFICATION_TYPE": "U", "NORAD_CAT_ID": 53765, "ELEMENT_SET_NO": 999, "REV_AT_EPOCH": 487, "BSTAR": 0, "MEAN_MOTION_DOT": 3.1e-07, "MEAN_MOTION_DDOT": 0}, "tle": {"line1": "1 53765U 22110A   25338.57236170  .00000031  00000+0  00000+0 0  9996", "line2": "2 53765   0.0604 108.2919 0002763 124.3540  49.7430  1.00269123  4875"}}, "geometry": {"type": "Point", "coordinates": [-61.31774597511555, -0.03201849496706311]}}, {"type": "Feature", "properties": {"norad_id": 54048, "name": "EUTELSAT HOTBIRD 13F", "group": "eutelsat", "lat": 0.008483235695291087, "lon": -51.054123593489685, "alt_km": 35779.90309797431, "timestamp": "2025-12-05T14:45:14.985080+00:00", "meta": {"OBJECT_NAME": "EUTELSAT HOTBIRD 13F", "OBJECT_ID": "2022-134A", "EPOCH": "2025-12-04T13:47:19.252032", "MEAN_MOTION": 1.00270673, "ECCENTRICITY": 0.0002145, "INCLINATION": 0.0509, "RA_OF_ASC_NODE": 291.8865, "ARG_OF_PERICENTER": 61.6816, "MEAN_ANOMALY": 299.907, "EPHEMERIS_TYPE": 0, "CLASSIFICATION_TYPE": "U", "NORAD_CAT_ID": 54048, "ELEMENT_SET_NO": 999, "REV_AT_EPOCH": 1142, "BSTAR": 0, "MEAN_MOTION_DOT": 1.02e-06, "MEAN_MOTION_DDOT": 0}, "tle": {"line1": "1 54048U 22134A   25338.57452838  .00000102  00000+0  00000+0 0  9997", "line2": "2 54048   0.0509 291.8865 0002145  61.6816 299.9070  1.00270673 11426"}}, "geometry": {"type": "Point", "coordinates": [-51.054123593489685, 0.008483235695291087]}}, {"type": "Feature", "properties": {"norad_id": 54225, "name": "EUTELSAT HOTBIRD 13G", "group": "eutelsat", "lat": 0.02803456793277939, "lon": -51.01400308111871, "alt_km": 35791.015920581165, "timestamp": "2025-12-05T14:45:14.985092+00:00", "meta": {"OBJECT_NAME": "EUTELSAT HOTBIRD 13G", "OBJECT_ID": "2022-146A", "EPOCH": "2025-12-04T01:48:08.883648", "MEAN_MOTION": 1.00271083, "ECCENTRICITY": 0.0002144, "INCLINATION": 0.0481, "RA_OF_ASC_NODE": 238.3515, "ARG_OF_PERICENTER": 307.4733, "MEAN_ANOMALY": 287.3658, "EPHEMERIS_TYPE": 0, "CLASSIFICATION_TYPE": "U", "NORAD_CAT_ID": 54225, "ELEMENT_SET_NO": 999, "REV_AT_EPOCH": 551, "BSTAR": 0, "MEAN_MOTION_DOT": 1.04e-06, "MEAN_MOTION_DDOT": 0}, "tle": {"line1": "1 54225U 22146A   25338.07510282  .00000104  00000+0  00000+0 0  9992", "line2": "2 54225   0.0481 238.3515 0002144 307.4733 287.3658  1.00271083  5510"}}, "geometry": {"type": "Point", "coordinates": [-51.01400308111871, 0.02803456793277939]}}, {"type": "Feature", "properties": {"norad_id": 54259, "name": "EUTELSAT 10B", "group": "eutelsat", "lat": -0.037788632198220866, "lon": -54.03356180090534, "alt_km": 35790.08070952253, "timestamp": "2025-12-05T14:45:14.985105+00:00", "meta": {"OBJECT_NAME": "EUTELSAT 10B", "OBJECT_ID": "2022-157A", "EPOCH": "2025-12-04T13:46:26.835744", "MEAN_MOTION": 1.00267156, "ECCENTRICITY": 0.0001176, "INCLINATION": 0.0608, "RA_OF_ASC_NODE": 104.3819, "ARG_OF_PERICENTER": 77.0234, "MEAN_ANOMALY": 108.856, "EPHEMERIS_TYPE": 0, "CLASSIFICATION_TYPE": "U", "NORAD_CAT_ID": 54259, "ELEMENT_SET_NO": 999, "REV_AT_EPOCH": 1107, "BSTAR": 0, "MEAN_MOTION_DOT": 8.2e-07, "MEAN_MOTION_DDOT": 0}, "tle": {"line1": "1 54259U 22157A   25338.57392171  .00000082  00000+0  00000+0 0  9996", "line2": "2 54259   0.0608 104.3819 0001176  77.0234 108.8560  1.00267156 11070"}}, "geometry": {"type": "Point", "coordinates": [-54.03356180090534, -0.037788632198220866]}}, {"type": "Feature", "properties": {"norad_id": 59346, "name": "EUTELSAT 36D", "group": "eutelsat", "lat": -0.00861532436958054, "lon": -28.156285101128457, "alt_km": 35784.320131439796, "timestamp": "2025-12-05T14:45:14.985116+00:00", "meta": {"OBJECT_NAME": "EUTELSAT 36D", "OBJECT_ID": "2024-059A", "EPOCH": "2025-12-04T04:07:21.549216", "MEAN_MOTION": 1.00269711, "ECCENTRICITY": 5.71e-05, "INCLINATION": 0.006, "RA_OF_ASC_NODE": 13.2097, "ARG_OF_PERICENTER": 292.2677, "MEAN_ANOMALY": 225.4931, "EPHEMERIS_TYPE": 0, "CLASSIFICATION_TYPE": "U", "NORAD_CAT_ID": 59346, "ELEMENT_SET_NO": 999, "REV_AT_EPOCH": 619, "BSTAR": 0, "MEAN_MOTION_DOT": 1.72e-06, "MEAN_MOTION_DDOT": 0}, "tle": {"line1": "1 59346U 24059A   25338.17177719  .00000172  00000+0  00000+0 0  9996", "line2": "2 59346   0.0060  13.2097 0000571 292.2677 225.4931  1.00269711  6194"}}, "geometry": {"type": "Point", "coordinates": [-28.156285101128457, -0.00861532436958054]}}]}